ASTRA 2E                
1 39285U 13056A   26175.17607332  .00000158  00000+0  00000+0 0  9994
2 39285   0.0658 324.7255 0002558 134.6219 264.8668  1.00269632 46483
FM-6                    
1 39360U 13058A   26175.20509291 -.00000009  00000+0  00000+0 0  9995
2 39360   0.0141  80.3203 0001751  99.0358  50.5384  1.00271044 46142
RADUGA-1M 3             
1 39375U 13062A   26174.94497397  .00000156  00000+0  00000+0 0  9991
2 39375   5.9757  72.2691 0001728 277.7410 297.2601  1.00272750 46174
SES-8                   
1 39460U 13071A   26175.11796622 -.00000262  00000+0  00000+0 0  9998
2 39460   0.0380 275.1914 0002974 178.7130 315.8341  1.00271006 44496
INMARSAT 5-F1           
1 39476U 13073A   26175.01645716  .00000034  00000+0  00000+0 0  9999
2 39476   0.0175  27.2031 0000641 334.6145 338.9064  1.00273060 45647
TKSAT-1 (TUPAC KATARI)  
1 39481U 13075A   26175.22330530 -.00000187  00000+0  00000+0 0  9995
2 39481   0.0275 180.8498 0002788 263.9530 180.7694  1.00272834 45676
EXPRESS-AM5             
1 39487U 13077A   26175.62977076 -.00000271  00000+0  00000+0 0  9993
2 39487   0.0141 295.1644 0000484  95.0564 249.3084  1.00274810 46435
GSAT-14                 
1 39498U 14001A   26175.18508670 -.00000070  00000+0  00000+0 0  9991
2 39498   0.0525  95.8305 0000618 152.5988 164.5231  1.00272011 45443
THAICOM 6               
1 39500U 14002A   26174.97212081 -.00000114  00000+0  00000+0 0  9999
2 39500   0.0471 131.0309 0004567 342.1974 227.3800  1.00272266 45524
TDRS 12                 
1 39504U 14004A   26175.09836330 -.00000267  00000+0  00000+0 0  9997
2 39504   3.9842  19.2205 0003107 189.6561  57.6427  1.00265193 44348
ABS-2                   
1 39508U 14006A   26175.11397954 -.00000079  00000+0  00000+0 0  9991
2 39508   0.0184   3.9333 0003983  74.1083 310.1709  1.00271985 45347
ATHENA-FIDUS            
1 39509U 14006B   26175.17789333  .00000000  00000+0  00000+0 0  9997
2 39509   0.0172  28.7087 0001597  60.1642 285.2977  1.00271830 45158
TURKSAT 4A              
1 39522U 14007A   26175.18100164  .00000154  00000+0  00000+0 0  9993
2 39522   0.0576 292.2036 0000690   9.3676  77.9117  1.00270959 45038
EXPRESS-AT1             
1 39612U 14010A   26175.18292002  .00000024  00000+0  00000+0 0  9996
2 39612   0.2765  85.6481 0004118  42.4782 273.2155  1.00305542 44885
EXPRESS-AT2             
1 39613U 14010B   26175.18153334  .00000086  00000+0  00000+0 0  9999
2 39613   0.0177 328.3291 0000373 342.5115  82.8488  1.00271517 44562
AMAZONAS 4A             
1 39616U 14011A   26175.18851837 -.00000245  00000+0  00000+0 0  9994
2 39616   0.0572 170.0369 0004191 303.8666 152.3118  1.00272054 44789
ASTRA 5B                
1 39617U 14011B   26175.17511998  .00000144  00000+0  00000+0 0  9992
2 39617   0.0567 319.6268 0002165 114.1004 285.1156  1.00271131 44738
IRNSS-1B                
1 39635U 14017A   26173.75560031  .00000117  00000+0  00000+0 0  9992
2 39635  28.9065 240.3095 0023496 164.9008 193.0039  1.00268591 44840
LUCH-5V                 
1 39727U 14023A   26175.11796622 -.00000265  00000+0  00000+0 0  9995
2 39727   5.1506  69.6806 0002285  46.6072 293.2066  1.00272561 44420
KAZSAT-3                
1 39728U 14023B   26175.18205334  .00000068  00000+0  00000+0 0  9998
2 39728   0.0104  17.3684 0000335  79.7597 299.2511  1.00272520 42521
EUTELSAT 3B             
1 39773U 14030A   26175.17104663  .00000028  00000+0  00000+0 0  9994
2 39773   0.0610 347.7105 0004215 108.2841 241.0150  1.00274963 44138
ASIASAT 8 (AMOS-7)      
1 40107U 14046A   26175.11995956 -.00000326  00000+0  00000+0 0  9993
2 40107   0.0355  77.6219 0001612  19.6813 323.4717  1.00271275102215
ASIASAT 6               
1 40141U 14052A   26175.33681250 -.00000354  00000+0  00000+0 0  9992
2 40141   0.0472 267.2837 0000970 198.4906  47.8652  1.00269192 43158
OPTUS 10                
1 40146U 14054A   26174.91603170 -.00000141  00000+0  00000+0 0  9991
2 40146   0.0950  37.6159 0002077  48.1190 312.1254  1.00271081 43095
MEASAT-3B               
1 40147U 14054B   26175.11727288 -.00000234  00000+0  00000+0 0  9995
2 40147   0.0383  41.5229 0003046  25.7203 338.7660  1.00271094 42976
HIMAWARI-8              
1 40267U 14060A   26175.16919581 -.00000268  00000+0  00000+0 0  9996
2 40267   0.0215 297.2405 0001468 157.7200  18.9276  1.00271272 42831
IRNSS-1C                
1 40269U 14061A   26174.91613389 -.00000157  00000+0  00000+0 0  9995
2 40269   6.5342  88.8035 0022624   3.2397 232.7468  1.00268265 42755
INTELSAT 30 (IS-30)     
1 40271U 14062A   26175.18239096 -.00000143  00000+0  00000+0 0  9993
2 40271   0.0251  51.4386 0001474 341.2185 210.2890  1.00270439  6869
ARSAT 1                 
1 40272U 14062B   26175.19451626 -.00000252  00000+0  00000+0 0  9991
2 40272   0.0170  30.7967 0002025  53.4254 186.3497  1.00271660 42691
EUTELSAT 53A            
1 40277U 14064A   26175.75124257  .00000107  00000+0  00000+0 0  9995
2 40277   0.0139 297.8821 0001308 244.6565  53.8117  1.00268261 41642
GSAT-16                 
1 40332U 14078A   26175.18136001  .00000092  00000+0  00000+0 0  9992
2 40332   0.0624 267.4301 0007979 176.0821 309.1672  1.00272892 42179
DIRECTV 14              
1 40333U 14078B   26175.18239096 -.00000118  00000+0  00000+0 0  9991
2 40333   0.0117  28.0808 0000217 350.4059 220.2724  1.00271057 42116
