OBJECT_NAME,OBJECT_ID,EPOCH,MEAN_MOTION,ECCENTRICITY,INCLINATION,RA_OF_ASC_NODE,ARG_OF_PERICENTER,MEAN_ANOMALY,EPHEMERIS_TYPE,CLASSIFICATION_TYPE,NORAD_CAT_ID,ELEMENT_SET_NO,REV_AT_EPOCH,BSTAR,MEAN_MOTION_DOT,MEAN_MOTION_DDOT
ASTRA 2E,2013-056A,2026-06-24T04:13:32.734848,1.00269632,.00025588,0.0658,324.7255,134.6219,264.8668,0,U,39285,999,4648,0,.158E-5,0
FM-6,2013-058A,2026-06-24T04:55:20.027424,1.00271044,.00017512,0.0141,80.3203,99.0358,50.5384,0,U,39360,999,4614,0,-.9E-7,0
RADUGA-1M 3,2013-062A,2026-06-23T22:40:45.751008,1.00272750,.00017286,5.9757,72.2691,277.7410,297.2601,0,U,39375,999,4617,0,.156E-5,0
SES-8,2013-071A,2026-06-24T02:49:52.281408,1.00271006,.00029744,0.0380,275.1914,178.7130,315.8341,0,U,39460,999,4449,0,-.262E-5,0
INMARSAT 5-F1,2013-073A,2026-06-24T00:23:41.898624,1.00273060,.00006419,0.0175,27.2031,334.6145,338.9064,0,U,39476,999,4564,0,.34E-6,0
TKSAT-1 (TUPAC KATARI),2013-075A,2026-06-24T05:21:33.577920,1.00272834,.00027889,0.0275,180.8498,263.9530,180.7694,0,U,39481,999,4567,0,-.187E-5,0
EXPRESS-AM5,2013-077A,2026-06-24T15:06:52.193664,1.00274810,.0000484,0.0141,295.1644,95.0564,249.3084,0,U,39487,999,4643,0,-.271E-5,0
GSAT-14,2014-001A,2026-06-24T04:26:31.490880,1.00272011,.00006189,0.0525,95.8305,152.5988,164.5231,0,U,39498,999,4544,0,-.7E-6,0
THAICOM 6,2014-002A,2026-06-23T23:19:51.237984,1.00272266,.00045671,0.0471,131.0309,342.1974,227.3800,0,U,39500,999,4552,0,-.114E-5,0
TDRS 12,2014-004A,2026-06-24T02:21:38.589120,1.00265193,.00031072,3.9842,19.2205,189.6561,57.6427,0,U,39504,999,4434,0,-.267E-5,0
ABS-2,2014-006A,2026-06-24T02:44:07.832256,1.00271985,.00039838,0.0184,3.9333,74.1083,310.1709,0,U,39508,999,4534,0,-.79E-6,0
ATHENA-FIDUS,2014-006B,2026-06-24T04:16:09.983712,1.00271830,.0001597,0.0172,28.7087,60.1642,285.2977,0,U,39509,999,4515,0,0,0
TURKSAT 4A,2014-007A,2026-06-24T04:20:38.541696,1.00270959,.00006906,0.0576,292.2036,9.3676,77.9117,0,U,39522,999,4503,0,.154E-5,0
EXPRESS-AT1,2014-010A,2026-06-24T04:23:24.289728,1.00305542,.00041185,0.2765,85.6481,42.4782,273.2155,0,U,39612,999,4488,0,.24E-6,0
EXPRESS-AT2,2014-010B,2026-06-24T04:21:24.480576,1.00271517,.0000373,0.0177,328.3291,342.5115,82.8488,0,U,39613,999,4456,0,.86E-6,0
AMAZONAS 4A,2014-011A,2026-06-24T04:31:27.987168,1.00272054,.0004191,0.0572,170.0369,303.8666,152.3118,0,U,39616,999,4478,0,-.245E-5,0
ASTRA 5B,2014-011B,2026-06-24T04:12:10.366272,1.00271131,.0002165,0.0567,319.6268,114.1004,285.1156,0,U,39617,999,4473,0,.144E-5,0
IRNSS-1B,2014-017A,2026-06-22T18:08:03.866784,1.00268591,.00234964,28.9065,240.3095,164.9008,193.0039,0,U,39635,999,4484,0,.117E-5,0
LUCH-5V,2014-023A,2026-06-24T02:49:52.281408,1.00272561,.00022853,5.1506,69.6806,46.6072,293.2066,0,U,39727,999,4442,0,-.265E-5,0
KAZSAT-3,2014-023B,2026-06-24T04:22:09.408576,1.00272520,.00003355,0.0104,17.3684,79.7597,299.2511,0,U,39728,999,4252,0,.68E-6,0
EUTELSAT 3B,2014-030A,2026-06-24T04:06:18.428832,1.00274963,.00042159,0.0610,347.7105,108.2841,241.0150,0,U,39773,999,4413,0,.28E-6,0
ASIASAT 8 (AMOS-7),2014-046A,2026-06-24T02:52:44.505984,1.00271275,.00016127,0.0355,77.6219,19.6813,323.4717,0,U,40107,999,10221,0,-.326E-5,0
ASIASAT 6,2014-052A,2026-06-24T08:05:00.600000,1.00269192,.00009704,0.0472,267.2837,198.4906,47.8652,0,U,40141,999,4315,0,-.354E-5,0
OPTUS 10,2014-054A,2026-06-23T21:59:05.138880,1.00271081,.00020779,0.0950,37.6159,48.1190,312.1254,0,U,40146,999,4309,0,-.141E-5,0
MEASAT-3B,2014-054B,2026-06-24T02:48:52.376832,1.00271094,.00030466,0.0383,41.5229,25.7203,338.7660,0,U,40147,999,4297,0,-.234E-5,0
HIMAWARI-8,2014-060A,2026-06-24T04:03:38.517984,1.00271272,.0001468,0.0215,297.2405,157.7200,18.9276,0,U,40267,999,4283,0,-.268E-5,0
IRNSS-1C,2014-061A,2026-06-23T21:59:13.968096,1.00268265,.00226241,6.5342,88.8035,3.2397,232.7468,0,U,40269,999,4275,0,-.157E-5,0
INTELSAT 30 (IS-30),2014-062A,2026-06-24T04:22:38.578944,1.00270439,.0001474,0.0251,51.4386,341.2185,210.2890,0,U,40271,999,686,0,-.143E-5,0
ARSAT 1,2014-062B,2026-06-24T04:40:06.204864,1.00271660,.00020257,0.0170,30.7967,53.4254,186.3497,0,U,40272,999,4269,0,-.252E-5,0
EUTELSAT 53A,2014-064A,2026-06-24T18:01:47.358048,1.00268261,.0001308,0.0139,297.8821,244.6565,53.8117,0,U,40277,999,4164,0,.107E-5,0
GSAT-16,2014-078A,2026-06-24T04:21:09.504864,1.00272892,.00079796,0.0624,267.4301,176.0821,309.1672,0,U,40332,999,4217,0,.92E-6,0
DIRECTV 14,2014-078B,2026-06-24T04:22:38.578944,1.00271057,.00002177,0.0117,28.0808,350.4059,220.2724,0,U,40333,999,4211,0,-.118E-5,0
